{
  "type": "FeatureCollection",
  "features": [
    {
      "type": "Feature",
      "properties": {
        "norad_id": 65729,
        "name": "DRAGONFLY",
        "group": "stations",
        "lat": -47.44443007731334,
        "lon": 118.42157027426023,
        "alt_km": 365.5737686322818,
        "timestamp": "2025-12-04T10:51:48.895640+00:00",
        "meta_object_name": "DRAGONFLY",
        "meta_object_id": "1998-067XH",
        "meta_epoch": "2025-12-03T19:52:13.613376",
        "meta_mean_motion": 15.68394911,
        "meta_eccentricity": 0.00065361,
        "meta_inclination": 51.6246,
        "meta_ra_of_asc_node": 181.2773,
        "meta_arg_of_pericenter": 221.3225,
        "meta_mean_anomaly": 138.7278,
        "meta_ephemeris_type": 0,
        "meta_classification_type": "U",
        "meta_norad_cat_id": 65729,
        "meta_element_set_no": 999,
        "meta_rev_at_epoch": 1176,
        "meta_bstar": 0.0014908733,
        "meta_mean_motion_dot": 0.00174585,
        "meta_mean_motion_ddot": 0,
        "tle_line1": "1 65729U 98067XH  25337.82793534  .00174585  00000+0  14909-2 0  9994",
        "tle_line2": "2 65729  51.6246 181.2773 0006536 221.3225 138.7278 15.68394911 11769"
      },
      "geometry": {
        "type": "Point",
        "coordinates": [
          118.42157027426023,
          -47.44443007731334
        ]
      }
    },
    {
      "type": "Feature",
      "properties": {
        "norad_id": 65730,
        "name": "1998-067XJ",
        "group": "stations",
        "lat": -37.47453702965309,
        "lon": 28.765258983106598,
        "alt_km": 157.1418189799897,
        "timestamp": "2025-12-04T10:51:48.895650+00:00",
        "meta_object_name": "1998-067XJ",
        "meta_object_id": "1998-067XJ",
        "meta_epoch": "2025-12-02T19:46:01.269984",
        "meta_mean_motion": 16.23931094,
        "meta_eccentricity": 0.00101147,
        "meta_inclination": 51.6061,
        "meta_ra_of_asc_node": 180.4655,
        "meta_arg_of_pericenter": 256.3912,
        "meta_mean_anomaly": 103.5981,
        "meta_ephemeris_type": 0,
        "meta_classification_type": "U",
        "meta_norad_cat_id": 65730,
        "meta_element_set_no": 999,
        "meta_rev_at_epoch": 1168,
        "meta_bstar": 0.002285911,
        "meta_mean_motion_dot": 0.06330363,
        "meta_mean_motion_ddot": 1.1931217e-05,
        "tle_line1": "1 65730U 98067XJ  25336.82362581  .06330363  11931-4  22859-2 0  9996",
        "tle_line2": "2 65730  51.6061 180.4655 0010114 256.3912 103.5981 16.23931094 11687"
      },
      "geometry": {
        "type": "Point",
        "coordinates": [
          28.765258983106598,
          -37.47453702965309
        ]
      }
    },
    {
      "type": "Feature",
      "properties": {
        "norad_id": 65731,
        "name": "1998-067XK",
        "group": "stations",
        "lat": 43.48346171536181,
        "lon": -49.50808185099462,
        "alt_km": 370.04220801373503,
        "timestamp": "2025-12-04T10:51:48.895661+00:00",
        "meta_object_name": "1998-067XK",
        "meta_object_id": "1998-067XK",
        "meta_epoch": "2025-12-03T20:33:14.862528",
        "meta_mean_motion": 15.63596152,
        "meta_eccentricity": 0.00059045,
        "meta_inclination": 51.628,
        "meta_ra_of_asc_node": 182.229,
        "meta_arg_of_pericenter": 193.4783,
        "meta_mean_anomaly": 166.6055,
        "meta_ephemeris_type": 0,
        "meta_classification_type": "U",
        "meta_norad_cat_id": 65731,
        "meta_element_set_no": 999,
        "meta_rev_at_epoch": 1175,
        "meta_bstar": 0.0013142835,
        "meta_mean_motion_dot": 0.00126041,
        "meta_mean_motion_ddot": 0,
        "tle_line1": "1 65731U 98067XK  25337.85642202  .00126041  00000+0  13143-2 0  9998",
        "tle_line2": "2 65731  51.6280 182.2290 0005904 193.4783 166.6055 15.63596152 11759"
      },
      "geometry": {
        "type": "Point",
        "coordinates": [
          -49.50808185099462,
          43.48346171536181
        ]
      }
    },
    {
      "type": "Feature",
      "properties": {
        "norad_id": 65732,
        "name": "RSP-03",
        "group": "stations",
        "lat": 10.749318846162463,
        "lon": -172.674624567819,
        "alt_km": 374.0232333375652,
        "timestamp": "2025-12-04T10:51:48.895671+00:00",
        "meta_object_name": "RSP-03",
        "meta_object_id": "1998-067XL",
        "meta_epoch": "2025-12-03T19:29:20.077152",
        "meta_mean_motion": 15.65846049,
        "meta_eccentricity": 0.00066871,
        "meta_inclination": 51.6261,
        "meta_ra_of_asc_node": 181.9259,
        "meta_arg_of_pericenter": 196.3432,
        "meta_mean_anomaly": 163.7349,
        "meta_ephemeris_type": 0,
        "meta_classification_type": "U",
        "meta_norad_cat_id": 65732,
        "meta_element_set_no": 999,
        "meta_rev_at_epoch": 1176,
        "meta_bstar": 0.0012908506,
        "meta_mean_motion_dot": 0.00135578,
        "meta_mean_motion_ddot": 0,
        "tle_line1": "1 65732U 98067XL  25337.81203793  .00135578  00000+0  12909-2 0  9997",
        "tle_line2": "2 65732  51.6261 181.9259 0006687 196.3432 163.7349 15.65846049 11762"
      },
      "geometry": {
        "type": "Point",
        "coordinates": [
          -172.674624567819,
          10.749318846162463
        ]
      }
    },
    {
      "type": "Feature",
      "properties": {
        "norad_id": 65733,
        "name": "GHS-01",
        "group": "stations",
        "lat": 37.25570396265857,
        "lon": -39.37858861718909,
        "alt_km": 352.1134308448909,
        "timestamp": "2025-12-04T10:51:48.895682+00:00",
        "meta_object_name": "GHS-01",
        "meta_object_id": "1998-067XM",
        "meta_epoch": "2025-12-03T22:05:54.332736",
        "meta_mean_motion": 15.70494881,
        "meta_eccentricity": 0.0007009,
        "meta_inclination": 51.6271,
        "meta_ra_of_asc_node": 180.4028,
        "meta_arg_of_pericenter": 220.9221,
        "meta_mean_anomaly": 139.1251,
        "meta_ephemeris_type": 0,
        "meta_classification_type": "U",
        "meta_norad_cat_id": 65733,
        "meta_element_set_no": 999,
        "meta_rev_at_epoch": 1179,
        "meta_bstar": 0.001848703,
        "meta_mean_motion_dot": 0.00238165,
        "meta_mean_motion_ddot": 0,
        "tle_line1": "1 65733U 98067XM  25337.92076774  .00238165  00000+0  18487-2 0  9990",
        "tle_line2": "2 65733  51.6271 180.4028 0007009 220.9221 139.1251 15.70494881 11792"
      },
      "geometry": {
        "type": "Point",
        "coordinates": [
          -39.37858861718909,
          37.25570396265857
        ]
      }
    },
    {
      "type": "Feature",
      "properties": {
        "norad_id": 65941,
        "name": "YOTSUBA-KULOVER",
        "group": "stations",
        "lat": 42.06031551731227,
        "lon": -132.77656264455214,
        "alt_km": 388.4001896773934,
        "timestamp": "2025-12-04T10:51:48.895692+00:00",
        "meta_object_name": "YOTSUBA-KULOVER",
        "meta_object_id": "1998-067XN",
        "meta_epoch": "2025-12-03T13:03:34.819200",
        "meta_mean_motion": 15.57842234,
        "meta_eccentricity": 0.00020894,
        "meta_inclination": 51.628,
        "meta_ra_of_asc_node": 186.1413,
        "meta_arg_of_pericenter": 172.2888,
        "meta_mean_anomaly": 187.8136,
        "meta_ephemeris_type": 0,
        "meta_classification_type": "U",
        "meta_norad_cat_id": 65941,
        "meta_element_set_no": 999,
        "meta_rev_at_epoch": 842,
        "meta_bstar": 0.001074186,
        "meta_mean_motion_dot": 0.0008193,
        "meta_mean_motion_ddot": 0,
        "tle_line1": "1 65941U 98067XN  25337.54415300  .00081930  00000+0  10742-2 0  9993",
        "tle_line2": "2 65941  51.6280 186.1413 0002089 172.2888 187.8136 15.57842234  8427"
      },
      "geometry": {
        "type": "Point",
        "coordinates": [
          -132.77656264455214,
          42.06031551731227
        ]
      }
    },
    {
      "type": "Feature",
      "properties": {
        "norad_id": 65942,
        "name": "BOTAN",
        "group": "stations",
        "lat": -44.57461802429722,
        "lon": 129.76520651488923,
        "alt_km": 391.4663473715427,
        "timestamp": "2025-12-04T10:51:48.895702+00:00",
        "meta_object_name": "BOTAN",
        "meta_object_id": "1998-067XP",
        "meta_epoch": "2025-12-03T18:13:47.902944",
        "meta_mean_motion": 15.60510623,
        "meta_eccentricity": 0.00042436,
        "meta_inclination": 51.6281,
        "meta_ra_of_asc_node": 184.5795,
        "meta_arg_of_pericenter": 175.2259,
        "meta_mean_anomaly": 184.8775,
        "meta_ephemeris_type": 0,
        "meta_classification_type": "U",
        "meta_norad_cat_id": 65942,
        "meta_element_set_no": 999,
        "meta_rev_at_epoch": 846,
        "meta_bstar": 0.0013484674,
        "meta_mean_motion_dot": 0.00114481,
        "meta_mean_motion_ddot": 0,
        "tle_line1": "1 65942U 98067XP  25337.75958221  .00114481  00000+0  13485-2 0  9996",
        "tle_line2": "2 65942  51.6281 184.5795 0004243 175.2259 184.8775 15.60510623  8461"
      },
      "geometry": {
        "type": "Point",
        "coordinates": [
          129.76520651488923,
          -44.57461802429722
        ]
      }
    }
  ]
}